NORAD_CAT_ID,OBJECT_NAME,OBJECT_TYPE,EPOCH,MEAN_MOTION,ECCENTRICITY,INCLINATION,RA_OF_ASC_NODE,ARG_OF_PERICENTER,MEAN_ANOMALY,BSTAR,MEAN_MOTION_DOT,MEAN_MOTION_DDOT,TLE_LINE0,TLE_LINE1,TLE_LINE2,SEMIMAJOR_AXIS,PERIOD,APOGEE,PERIGEE,DECAYED
53533.0,STARLINK-4493,PAYLOAD,2023-03-12 01:01:41,15.08849277,0.0001215,53.2154,303.6971,78.6171,281.4958,0.00026173,3.881e-05,0.0,0 STARLINK-4493,1 53533U 22101G   23071.04284644  .00003881  00000-0  26173-3 0  9992,2 53533  53.2154 303.6971 0001215  78.6171 281.4958 15.08849277 31067,6917.852,95.437,540.558,538.877,0.0
53533.0,STARLINK-4493,PAYLOAD,2023-03-12 15:20:10,15.088433,0.0001018,53.215,301.0202,78.5932,281.5175,0.00032346,4.864e-05,0.0,0 STARLINK-4493,1 53533U 22101G   23071.63900990  .00004864  00000-0  32346-3 0  9997,2 53533  53.2150 301.0202 0001018  78.5932 281.5175 15.08843300 31150,6917.87,95.437,540.44,539.031,0.0
53533.0,STARLINK-4493,PAYLOAD,2023-03-12 21:41:42,15.08852294,0.000112,53.2156,299.8304,85.777,274.3351,0.00031852,4.787e-05,0.0,0 STARLINK-4493,1 53533U 22101G   23071.90396411  .00004787  00000-0  31852-3 0  9999,2 53533  53.2156 299.8304 0001120  85.7770 274.3351 15.08852294 31199,6917.843,95.437,540.483,538.933,0.0
53533.0,STARLINK-4493,PAYLOAD,2023-03-13 00:52:28,15.08857959,0.0001164,53.2153,299.2347,83.6639,276.4486,0.00048592,7.458e-05,0.0,0 STARLINK-4493,1 53533U 22101G   23072.03644230  .00007458  00000-0  48592-3 0  9996,2 53533  53.2153 299.2347 0001164  83.6639 276.4486 15.08857959 31214,6917.825,95.436,540.496,538.885,0.0
53533.0,STARLINK-4493,PAYLOAD,2023-03-13 15:10:57,15.08833302,0.0001021,53.2148,296.5604,77.0669,283.0437,-0.00017367,-3.05e-05,0.0,0 STARLINK-4493,1 53533U 22101G   23072.63261011 -.00003050  00000-0 -17367-3 0  9996,2 53533  53.2148 296.5604 0001021  77.0669 283.0437 15.08833302 31302,6917.901,95.438,540.472,539.06,0.0
53533.0,STARLINK-4493,PAYLOAD,2023-03-13 21:32:30,15.08834625,0.0001123,53.2147,295.3709,84.1987,275.9133,-8.9766e-05,-1.716e-05,0.0,0 STARLINK-4493,1 53533U 22101G   23072.89757127 -.00001716  00000-0 -89766-4 0  9992,2 53533  53.2147 295.3709 0001123  84.1987 275.9133 15.08834625 31345,6917.897,95.438,540.539,538.985,0.0
53533.0,STARLINK-4493,PAYLOAD,2023-03-14 02:18:39,15.0884016,0.0001079,53.2152,294.4779,85.4591,274.6524,3.6636e-06,-2.29e-06,0.0,0 STARLINK-4493,1 53533U 22101G   23073.09628982 -.00000229  00000-0  36636-5 0  9997,2 53533  53.2152 294.4779 0001079  85.4591 274.6524 15.08840160 31377,6917.88,95.438,540.491,538.998,0.0
53533.0,STARLINK-4493,PAYLOAD,2023-03-14 21:23:16,15.08855999,0.0001345,53.2152,290.9096,90.0221,270.0925,0.00020839,3.032e-05,0.0,0 STARLINK-4493,1 53533U 22101G   23073.89116242  .00003032  00000-0  20839-3 0  9996,2 53533  53.2152 290.9096 0001345  90.0221 270.0925 15.08855999 31492,6917.831,95.437,540.627,538.766,0.0
53533.0,STARLINK-4493,PAYLOAD,2023-03-15 02:09:25,15.08862323,0.0001447,53.2148,290.0167,94.6731,265.4426,0.00066047,0.00010245,0.0,0 STARLINK-4493,1 53533U 22101G   23074.08988331  .00010245  00000-0  66047-3 0  9999,2 53533  53.2148 290.0167 0001447  94.6731 265.4426 15.08862323 31523,6917.812,95.436,540.678,538.676,0.0
53533.0,STARLINK-4493,PAYLOAD,2023-03-15 13:17:08,15.08840555,7.97e-05,53.2157,287.9351,98.4998,261.6084,-4.614e-06,-3.61e-06,0.0,0 STARLINK-4493,1 53533U 22101G   23074.55356765 -.00000361  00000-0 -46140-5 0  9995,2 53533  53.2157 287.9351 0000797  98.4998 261.6084 15.08840555 31595,6917.879,95.438,540.295,539.192,0.0
53533.0,STARLINK-4493,PAYLOAD,2023-03-15 21:14:03,15.08856687,0.0001864,53.2157,286.4482,98.8516,261.2687,0.00030928,4.64e-05,0.0,0 STARLINK-4493,1 53533U 22101G   23074.88476209  .00004640  00000-0  30928-3 0  9994,2 53533  53.2157 286.4482 0001864  98.8516 261.2687 15.08856687 31644,6917.829,95.436,540.984,538.405,0.0
53533.0,STARLINK-4493,PAYLOAD,2023-03-16 00:24:49,15.08861,8.48e-05,53.216,285.854,90.0716,270.0373,0.00048159,7.389e-05,0.0,0 STARLINK-4493,1 53533U 22101G   23075.01724038  .00007389  00000-0  48159-3 0  9994,2 53533  53.2160 285.8540 0000848  90.0716 270.0373 15.08861000 31660,6917.816,95.436,540.268,539.095,0.0
53533.0,STARLINK-4493,PAYLOAD,2023-03-16 13:07:55,15.0883248,8.17e-05,53.2158,283.4738,87.4005,272.7081,0.00012548,1.709e-05,0.0,0 STARLINK-4493,1 53533U 22101G   23075.54716924  .00001709  00000-0  12548-3 0  9990,2 53533  53.2158 283.4738 0000817  87.4005 272.7081 15.08832480 31741,6917.903,95.438,540.334,539.203,0.0
53533.0,STARLINK-4493,PAYLOAD,2023-03-16 21:04:51,15.08825138,7.09e-05,53.2144,281.9868,69.2124,290.8944,5.1549e-08,-2.87e-06,0.0,0 STARLINK-4493,1 53533U 22101G   23075.87837324 -.00000287  00000-0  51549-7 0  9993,2 53533  53.2144 281.9868 0000709  69.2124 290.8944 15.08825138 31799,6917.926,95.438,540.281,539.3,0.0
53533.0,STARLINK-4493,PAYLOAD,2023-03-17 00:15:37,15.08825293,7.44e-05,53.2145,281.392,69.6294,290.4778,4.1629e-06,-2.21e-06,0.0,0 STARLINK-4493,1 53533U 22101G   23076.01085524 -.00000221  00000-0  41629-5 0  9991,2 53533  53.2145 281.3920 0000744  69.6294 290.4778 15.08825293 31810,6917.925,95.438,540.305,539.276,0.0
53533.0,STARLINK-4493,PAYLOAD,2023-03-17 06:37:10,15.08833048,7.44e-05,53.2143,280.2026,68.3591,291.7481,0.00012486,1.7e-05,0.0,0 STARLINK-4493,1 53533U 22101G   23076.27581480  .00001700  00000-0  12486-3 0  9990,2 53533  53.2143 280.2026 0000744  68.3591 291.7481 15.08833048 31855,6917.902,95.438,540.281,539.252,0.0
53533.0,STARLINK-4493,PAYLOAD,2023-03-17 20:55:38,15.08848035,6.95e-05,53.2142,277.526,59.0476,301.0584,0.0004503,6.888e-05,0.0,0 STARLINK-4493,1 53533U 22101G   23076.87197202  .00006888  00000-0  45030-3 0  9994,2 53533  53.2142 277.5260 0000695  59.0476 301.0584 15.08848035 31948,6917.856,95.437,540.202,539.24,0.0
53533.0,STARLINK-4493,PAYLOAD,2023-03-18 12:49:29,15.0884207,0.0001014,53.2134,274.5542,66.252,293.8578,0.00014499,2.021e-05,0.0,0 STARLINK-4493,1 53533U 22101G   23077.53437453  .00002021  00000-0  14499-3 0  9993,2 53533  53.2134 274.5542 0001014  66.2520 293.8578 15.08842070 32041,6917.874,95.437,540.441,539.038,0.0
53533.0,STARLINK-4493,PAYLOAD,2023-03-18 22:21:48,15.08841623,0.0001017,53.2143,272.7691,66.0494,294.0605,0.00022759,3.336e-05,0.0,0 STARLINK-4493,1 53533U 22101G   23077.93181505  .00003336  00000-0  22759-3 0  9999,2 53533  53.2143 272.7691 0001017  66.0494 294.0605 15.08841623 32101,6917.875,95.437,540.444,539.037,0.0
53533.0,STARLINK-4493,PAYLOAD,2023-03-19 12:40:16,15.08844217,8.78e-05,53.214,270.0924,63.4626,296.6456,0.00014721,2.056e-05,0.0,0 STARLINK-4493,1 53533U 22101G   23078.52797278  .00002056  00000-0  14721-3 0  9993,2 53533  53.2140 270.0924 0000878  63.4626 296.6456 15.08844217 32193,6917.867,95.437,540.34,539.125,0.0
53533.0,STARLINK-4493,PAYLOAD,2023-03-19 19:01:49,15.08847829,0.0001027,53.2142,268.9021,70.6325,289.4778,9.7888e-05,1.271e-05,0.0,0 STARLINK-4493,1 53533U 22101G   23078.79293019  .00001271  00000-0  97888-4 0  9990,2 53533  53.2142 268.9021 0001027  70.6325 289.4778 15.08847829 32236,6917.856,95.437,540.432,539.011,0.0
53533.0,STARLINK-4493,PAYLOAD,2023-03-20 06:09:30,15.08849476,9.69e-05,53.2154,266.8198,73.8349,286.2749,0.00011335,1.517e-05,0.0,0 STARLINK-4493,1 53533U 22101G   23079.25660664  .00001517  00000-0  11335-3 0  9991,2 53533  53.2154 266.8198 0000969  73.8349 286.2749 15.08849476 32307,6917.851,95.437,540.387,539.046,0.0
53533.0,STARLINK-4493,PAYLOAD,2023-03-20 18:52:36,15.08844544,9.92e-05,53.2144,264.4409,75.7065,284.4037,0.00010601,1.4e-05,0.0,0 STARLINK-4493,1 53533U 22101G   23079.78652891  .00001400  00000-0  10601-3 0  9998,2 53533  53.2144 264.4409 0000992  75.7065 284.4037 15.08844544 32386,6917.866,95.437,540.418,539.045,0.0
53533.0,STARLINK-4493,PAYLOAD,2023-03-20 22:03:21,15.08853492,8.25e-05,53.2152,263.8447,88.3227,271.786,0.00010037,1.311e-05,0.0,0 STARLINK-4493,1 53533U 22101G   23079.91900202  .00001311  00000-0  10037-3 0  9999,2 53533  53.2152 263.8447 0000825  88.3227 271.7860 15.08853492 32403,6917.839,95.437,540.275,539.133,0.0
53533.0,STARLINK-4493,PAYLOAD,2023-03-21 12:21:50,15.08838739,9.08e-05,53.2138,261.1685,82.3246,277.7849,-1.6263e-06,-3.14e-06,0.0,0 STARLINK-4493,1 53533U 22101G   23080.51517068 -.00000314  00000-0 -16263-5 0  9994,2 53533  53.2138 261.1685 0000908  82.3246 277.7849 15.08838739 32498,6917.884,95.438,540.377,539.121,0.0
53533.0,STARLINK-4493,PAYLOAD,2023-03-21 18:43:23,15.08843357,9.68e-05,53.2146,259.98,79.0096,281.1005,6.8647e-05,8.05e-06,0.0,0 STARLINK-4493,1 53533U 22101G   23080.78012862  .00000805  00000-0  68647-4 0  9990,2 53533  53.2146 259.9800 0000968  79.0096 281.1005 15.08843357 32533,6917.87,95.437,540.405,539.065,0.0
53533.0,STARLINK-4493,PAYLOAD,2023-03-22 16:58:47,15.08839929,0.000102,53.215,255.8187,80.8742,279.2365,6.3525e-06,-1.87e-06,0.0,0 STARLINK-4493,1 53533U 22101G   23081.70749364 -.00000187  00000-0  63525-5 0  9992,2 53533  53.2150 255.8187 0001020  80.8742 279.2365 15.08839929 32671,6917.881,95.438,540.451,539.04,0.0
53533.0,STARLINK-4493,PAYLOAD,2023-03-22 18:34:10,15.08842675,0.0001032,53.2153,255.5217,81.6711,278.4398,2.602e-05,1.26e-06,0.0,0 STARLINK-4493,1 53533U 22101G   23081.77373098  .00000126  00000-0  26020-4 0  9996,2 53533  53.2153 255.5217 0001032  81.6711 278.4398 15.08842675 32683,6917.872,95.437,540.451,539.023,0.0
53533.0,STARLINK-4493,PAYLOAD,2023-03-23 10:28:06,15.08742024,0.0001757,53.2152,252.5482,98.1627,261.9564,0.0016413,0.0002586,0.0,0 STARLINK-4493,1 53533U 22101G   23082.43618448  .00025860  00000-0  16413-2 0  9996,2 53533  53.2152 252.5482 0001757  98.1627 261.9564 15.08742024 32786,6918.18,95.444,541.26,538.829,0.0
53533.0,STARLINK-4493,PAYLOAD,2023-03-23 18:24:53,15.08887195,8.65e-05,53.2156,251.0597,78.9616,281.1473,0.00045993,7.049e-05,0.0,0 STARLINK-4493,1 53533U 22101G   23082.76728822  .00007049  00000-0  45993-3 0  9995,2 53533  53.2156 251.0597 0000865  78.9616 281.1473 15.08887195 32832,6917.736,95.435,540.2,539.003,0.0
